{
  "type": "FeatureCollection",
  "features": [
    {
      "type": "Feature",
      "properties": {
        "norad_id": 58647,
        "name": "TIANMU-1 13",
        "group": "weather",
        "lat": -42.5029078533238,
        "lon": -166.33484779691733,
        "alt_km": 493.89207828978033,
        "timestamp": "2025-12-27T02:10:15.831647+00:00",
        "meta_object_name": "TIANMU-1 13",
        "meta_object_id": "2023-205C",
        "meta_epoch": "2025-12-26T20:28:16.663296",
        "meta_mean_motion": 15.2470155,
        "meta_eccentricity": 0.0006827,
        "meta_inclination": 97.3616,
        "meta_ra_of_asc_node": 20.2362,
        "meta_arg_of_pericenter": 206.1234,
        "meta_mean_anomaly": 153.966,
        "meta_ephemeris_type": 0,
        "meta_classification_type": "U",
        "meta_norad_cat_id": 58647,
        "meta_element_set_no": 999,
        "meta_rev_at_epoch": 11122,
        "meta_bstar": 0.00028324,
        "meta_mean_motion_dot": 6.939e-05,
        "meta_mean_motion_ddot": 0,
        "tle_line1": "1 58647U 23205C   25360.85297064  .00006939  00000+0  28324-3 0  9997",
        "tle_line2": "2 58647  97.3616  20.2362 0006827 206.1234 153.9660 15.24701550111227"
      },
      "geometry": {
        "type": "Point",
        "coordinates": [
          -166.33484779691733,
          -42.5029078533238
        ]
      }
    },
    {
      "type": "Feature",
      "properties": {
        "norad_id": 58648,
        "name": "TIANMU-1 14",
        "group": "weather",
        "lat": -46.51026768730159,
        "lon": 27.63100546400669,
        "alt_km": 499.6004650408522,
        "timestamp": "2025-12-27T02:10:15.831681+00:00",
        "meta_object_name": "TIANMU-1 14",
        "meta_object_id": "2023-205D",
        "meta_epoch": "2025-12-26T20:04:35.933664",
        "meta_mean_motion": 15.24683547,
        "meta_eccentricity": 0.0007487,
        "meta_inclination": 97.3549,
        "meta_ra_of_asc_node": 19.5558,
        "meta_arg_of_pericenter": 212.3607,
        "meta_mean_anomaly": 147.7172,
        "meta_ephemeris_type": 0,
        "meta_classification_type": "U",
        "meta_norad_cat_id": 58648,
        "meta_element_set_no": 999,
        "meta_rev_at_epoch": 11122,
        "meta_bstar": 0.00027029,
        "meta_mean_motion_dot": 6.616e-05,
        "meta_mean_motion_ddot": 0,
        "tle_line1": "1 58648U 23205D   25360.83652701  .00006616  00000+0  27029-3 0  9992",
        "tle_line2": "2 58648  97.3549  19.5558 0007487 212.3607 147.7172 15.24683547111221"
      },
      "geometry": {
        "type": "Point",
        "coordinates": [
          27.63100546400669,
          -46.51026768730159
        ]
      }
    },
    {
      "type": "Feature",
      "properties": {
        "norad_id": 58660,
        "name": "TIANMU-1 19",
        "group": "weather",
        "lat": 22.160402349220785,
        "lon": 109.050840314077,
        "alt_km": 484.59864934140114,
        "timestamp": "2025-12-27T02:10:15.831693+00:00",
        "meta_object_name": "TIANMU-1 19",
        "meta_object_id": "2023-208A",
        "meta_epoch": "2025-12-26T19:47:13.611840",
        "meta_mean_motion": 15.28109108,
        "meta_eccentricity": 0.0004913,
        "meta_inclination": 97.4384,
        "meta_ra_of_asc_node": 111.8356,
        "meta_arg_of_pericenter": 194.0933,
        "meta_mean_anomaly": 166.017,
        "meta_ephemeris_type": 0,
        "meta_classification_type": "U",
        "meta_norad_cat_id": 58660,
        "meta_element_set_no": 999,
        "meta_rev_at_epoch": 11097,
        "meta_bstar": 0.0003735,
        "meta_mean_motion_dot": 0.00010168,
        "meta_mean_motion_ddot": 0,
        "tle_line1": "1 58660U 23208A   25360.82446310  .00010168  00000+0  37350-3 0  9990",
        "tle_line2": "2 58660  97.4384 111.8356 0004913 194.0933 166.0170 15.28109108110977"
      },
      "geometry": {
        "type": "Point",
        "coordinates": [
          109.050840314077,
          22.160402349220785
        ]
      }
    },
    {
      "type": "Feature",
      "properties": {
        "norad_id": 58661,
        "name": "TIANMU-1 20",
        "group": "weather",
        "lat": 21.64552934031429,
        "lon": -64.46755010017532,
        "alt_km": 474.69201040041935,
        "timestamp": "2025-12-27T02:10:15.831703+00:00",
        "meta_object_name": "TIANMU-1 20",
        "meta_object_id": "2023-208B",
        "meta_epoch": "2025-12-26T20:46:14.471328",
        "meta_mean_motion": 15.29300404,
        "meta_eccentricity": 0.0006934,
        "meta_inclination": 97.4322,
        "meta_ra_of_asc_node": 112.3381,
        "meta_arg_of_pericenter": 208.1482,
        "meta_mean_anomaly": 151.9384,
        "meta_ephemeris_type": 0,
        "meta_classification_type": "U",
        "meta_norad_cat_id": 58661,
        "meta_element_set_no": 999,
        "meta_rev_at_epoch": 11105,
        "meta_bstar": 0.00037935,
        "meta_mean_motion_dot": 0.00010717,
        "meta_mean_motion_ddot": 0,
        "tle_line1": "1 58661U 23208B   25360.86544527  .00010717  00000+0  37935-3 0  9993",
        "tle_line2": "2 58661  97.4322 112.3381 0006934 208.1482 151.9384 15.29300404111058"
      },
      "geometry": {
        "type": "Point",
        "coordinates": [
          -64.46755010017532,
          21.64552934031429
        ]
      }
    },
    {
      "type": "Feature",
      "properties": {
        "norad_id": 58662,
        "name": "TIANMU-1 21",
        "group": "weather",
        "lat": -65.38373171207245,
        "lon": 131.1009845126704,
        "alt_km": 477.66286025620684,
        "timestamp": "2025-12-27T02:10:15.831713+00:00",
        "meta_object_name": "TIANMU-1 21",
        "meta_object_id": "2023-208C",
        "meta_epoch": "2025-12-26T20:11:24.336096",
        "meta_mean_motion": 15.3185723,
        "meta_eccentricity": 0.0006548,
        "meta_inclination": 97.4371,
        "meta_ra_of_asc_node": 114.2859,
        "meta_arg_of_pericenter": 202.4685,
        "meta_mean_anomaly": 157.6271,
        "meta_ephemeris_type": 0,
        "meta_classification_type": "U",
        "meta_norad_cat_id": 58662,
        "meta_element_set_no": 999,
        "meta_rev_at_epoch": 11115,
        "meta_bstar": 0.00039516,
        "meta_mean_motion_dot": 0.0001209,
        "meta_mean_motion_ddot": 0,
        "tle_line1": "1 58662U 23208C   25360.84125389  .00012090  00000+0  39516-3 0  9996",
        "tle_line2": "2 58662  97.4371 114.2859 0006548 202.4685 157.6271 15.31857230111153"
      },
      "geometry": {
        "type": "Point",
        "coordinates": [
          131.1009845126704,
          -65.38373171207245
        ]
      }
    },
    {
      "type": "Feature",
      "properties": {
        "norad_id": 58663,
        "name": "TIANMU-1 22",
        "group": "weather",
        "lat": 10.344099673842992,
        "lon": 110.78709499802054,
        "alt_km": 485.80934680982136,
        "timestamp": "2025-12-27T02:10:15.831723+00:00",
        "meta_object_name": "TIANMU-1 22",
        "meta_object_id": "2023-208D",
        "meta_epoch": "2025-12-26T19:50:17.200608",
        "meta_mean_motion": 15.27844569,
        "meta_eccentricity": 0.0003075,
        "meta_inclination": 97.4379,
        "meta_ra_of_asc_node": 111.8902,
        "meta_arg_of_pericenter": 216.4119,
        "meta_mean_anomaly": 143.6911,
        "meta_ephemeris_type": 0,
        "meta_classification_type": "U",
        "meta_norad_cat_id": 58663,
        "meta_element_set_no": 999,
        "meta_rev_at_epoch": 11098,
        "meta_bstar": 0.00034547,
        "meta_mean_motion_dot": 9.321e-05,
        "meta_mean_motion_ddot": 0,
        "tle_line1": "1 58663U 23208D   25360.82658797  .00009321  00000+0  34547-3 0  9991",
        "tle_line2": "2 58663  97.4379 111.8902 0003075 216.4119 143.6911 15.27844569110985"
      },
      "geometry": {
        "type": "Point",
        "coordinates": [
          110.78709499802054,
          10.344099673842992
        ]
      }
    },
    {
      "type": "Feature",
      "properties": {
        "norad_id": 58700,
        "name": "TIANMU-1 15",
        "group": "weather",
        "lat": -25.80376881201896,
        "lon": -173.8598846635371,
        "alt_km": 498.801787407534,
        "timestamp": "2025-12-27T02:10:15.831734+00:00",
        "meta_object_name": "TIANMU-1 15",
        "meta_object_id": "2024-004A",
        "meta_epoch": "2025-12-26T19:59:03.565824",
        "meta_mean_motion": 15.24596183,
        "meta_eccentricity": 0.0006126,
        "meta_inclination": 97.4631,
        "meta_ra_of_asc_node": 182.2494,
        "meta_arg_of_pericenter": 230.2326,
        "meta_mean_anomaly": 129.8373,
        "meta_ephemeris_type": 0,
        "meta_classification_type": "U",
        "meta_norad_cat_id": 58700,
        "meta_element_set_no": 999,
        "meta_rev_at_epoch": 10949,
        "meta_bstar": 0.00029935,
        "meta_mean_motion_dot": 7.312e-05,
        "meta_mean_motion_ddot": 0,
        "tle_line1": "1 58700U 24004A   25360.83268016  .00007312  00000+0  29935-3 0  9993",
        "tle_line2": "2 58700  97.4631 182.2494 0006126 230.2326 129.8373 15.24596183109495"
      },
      "geometry": {
        "type": "Point",
        "coordinates": [
          -173.8598846635371,
          -25.80376881201896
        ]
      }
    }
  ]
}